DELTA 2 R/B(1)          
1 20453U 90008B   26156.15618110  .00072469  00000+0  57438-3 0  9991
2 20453  35.6010 316.0350 0068569   0.5078 359.5722 15.66926227939812
COSMOS 2058             
1 20465U 90010A   26156.48770735  .00003383  00000+0  19557-3 0  9994
2 20465  82.4665 320.8945 0010535  38.9778 321.2209 15.11934823955507
SL-14 R/B               
1 20466U 90010B   26156.83741804  .00000390  00000+0  44210-4 0  9999
2 20466  82.5019 184.6039 0020118  13.9579 346.2188 14.83639136941552
SL-14 R/B               
1 20511U 90018B   26156.66997545  .00000406  00000+0  47809-4 0  9999
2 20511  82.5202 140.8726 0016775 157.3822 202.8136 14.82208520935610
HST                     
1 20580U 90037B   26156.34226219  .00005266  00000+0  16530-3 0  9999
2 20580  28.4714 161.5211 0001846  24.4267 335.6416 15.30618516786751
SL-16 R/B               
1 20625U 90046B   26156.63755413  .00000211  00000+0  13348-3 0  9993
2 20625  70.9977 113.2042 0014180 179.3303 180.7841 14.15019866860834
COSMOS 2084             
1 20663U 90055A   26156.37596094  .00002096  00000+0  15651-3 0  9996
2 20663  62.7909  36.4030 0005570 257.5240 102.5238 15.06066013949528
SL-6 R/B(2)             
1 20666U 90055D   26156.81283866  .00002179  00000+0  16923-3 0  9993
2 20666  62.7841 314.0810 0038724   3.5052 356.6311 15.03965061951440
SL-8 R/B                
1 20775U 90078B   26156.45947229  .00017486  00000+0  49268-3 0  9994
2 20775  82.9014 172.2366 0353184  77.9086 286.1469 14.91883190822377
SL-8 R/B                
1 21088U 91006B   26156.60930543  .00000053  00000+0  37954-4 0  9994
2 21088  82.9416 104.6463 0023132 145.5688  27.0376 13.77505074776175
OKEAN-3                 
1 21397U 91039A   26156.50572372  .00002509  00000+0  17321-3 0  9997
2 21397  82.5169 251.7086 0014712  37.6890 322.5365 15.05275848878242
COSMOS 2151             
1 21422U 91042A   26156.78916492  .00001728  00000+0  13514-3 0  9997
2 21422  82.4962 358.6817 0013641 118.1840 242.0764 15.00406473876400
SL-14 R/B               
1 21423U 91042B   26156.67409922  .00000422  00000+0  50375-4 0  9998
2 21423  82.4918 137.6921 0015856 316.0792  43.9161 14.81894929866108
ERS-1                   
1 21574U 91050A   26156.48753061  .00000266  00000+0  99737-4 0  9990
2 21574  98.7801 176.8995 0030864 303.0379  56.7844 14.39509691828363
ARIANE 40 R/B           
1 21610U 91050F   26156.39942959  .00000312  00000+0  10569-3 0  9994
2 21610  98.1880 205.2747 0003700 147.6026 212.5392 14.42949895831640
INTERCOSMOS 25          
1 21819U 91086A   26156.55705140  .00000821  00000+0  16328-3 0  9995
2 21819  82.6055 256.8474 1484476 287.5043  56.9522 12.12181566507338
SL-8 R/B                
1 21876U 92008B   26156.50155443  .00000038  00000+0  23259-4 0  9995
2 21876  82.9270 202.4756 0033279 248.3903 224.1561 13.75973742721495
SL-8 R/B                
1 21938U 92020B   26156.58382075  .00000070  00000+0  56056-4 0  9996
2 21938  82.9302  88.4754 0030335  53.9941 118.8105 13.75547734713214
USA 81                  
1 21949U 92023A   26156.81841302  .00000208  00000+0  69526-4 0  9999
2 21949  85.0076  80.5683 0002729  95.1529 264.9975 14.32395106107402
COSMOS 2219             
1 22219U 92076A   26156.44815808 -.00000124  00000+0 -40558-4 0  9992
2 22219  71.0581 194.6129 0016048  63.3408 296.9356 14.14095701730782
SL-16 R/B               
1 22220U 92076B   26156.33264924 -.00000146  00000+0 -48870-4 0  9998
2 22220  71.0010   3.7544 0014336 314.2898 220.0721 14.16872694734246
COSMOS 2221             
1 22236U 92080A   26156.50475581  .00001522  00000+0  13161-3 0  9993
2 22236  82.5037 194.9568 0012607 255.4528 104.5296 14.96503646793922
SL-16 R/B               
1 22285U 92093B   26156.51132367 -.00000007  00000+0  20745-4 0  9999
2 22285  71.0203 179.9023 0004582 203.9491 156.1420 14.15464970725589
COSMOS 2228             
1 22286U 92094A   26156.79567446  .00002735  00000+0  23152-3 0  9994
2 22286  82.5169 152.9542 0018056  11.2913 348.8711 14.97544746789241
SL-16 R/B               
1 22566U 93016B   26156.34879009 -.00000051  00000+0 -18142-5 0  9998
2 22566  71.0081  31.0728 0010973 200.9257 159.1418 14.15308495714579
COSMOS 2242             
1 22626U 93024A   26156.48255650  .00001785  00000+0  15300-3 0  9993
2 22626  82.5182 182.7407 0016517  16.0786 344.0957 14.96868319793526
SL-16 R/B               
1 22803U 93059B   26156.49124242  .00000012  00000+0  29793-4 0  9995
2 22803  70.9885 185.9686 0014921  74.3810 285.8960 14.17243439691975
ARIANE 40 R/B           
1 22830U 93061H   26156.47424700  .00000218  00000+0  95428-4 0  9994
2 22830  98.4821 223.5742 0011199  30.6064 329.5771 14.32902762706670
COSMOS 2278             
1 23087U 94023A   26156.50692543  .00000387  00000+0  22668-3 0  9996
2 23087  71.0539 351.3647 0010648 256.3727 103.6210 14.14390708657229
SL-16 R/B               
1 23088U 94023B   26156.51388273  .00000071  00000+0  61478-4 0  9993
2 23088  70.9998 246.4463 0003522 199.9747 160.1238 14.15018485658515
SL-16 R/B               
1 23343U 94074B   26156.10994514  .00000453  00000+0  67173-4 0  9991
2 23343  97.6995 183.3338 0005279 304.0059 123.0223 14.79491724700171
SL-16 R/B               
1 23405U 94077B   26156.46119804 -.00000287  00000+0 -12218-3 0  9999
2 23405  70.9808 167.8323 0002508 334.7270  25.3730 14.15574705628655
ARIANE 40+ R/B          
1 23561U 95021B   26156.43930884  .00000280  00000+0  10296-3 0  9993
2 23561  98.4412 226.6834 0005777 232.0914 138.6075 14.39826707631877
SL-16 R/B               
1 23705U 95058B   26156.26042465 -.00000218  00000+0 -87119-4 0  9995
2 23705  71.0218 356.4006 0013239 336.4878  23.5638 14.15505739580245
SL-16 R/B               
1 24298U 96051B   26156.27528725  .00000133  00000+0  98873-4 0  9999
2 24298  70.7634 349.8600 0014444 355.1089   4.9887 14.12442026534017
ORBVIEW 2 (SEASTAR)     
1 24883U 97037A   26156.44988054  .00000280  00000+0  11358-3 0  9993
2 24883  98.8680 323.1444 0002796 140.4652 219.6737 14.35547281521062
SL-16 R/B               
1 25400U 98043G   26156.57562354  .00000065  00000+0  46311-4 0  9991
2 25400  98.8359 110.6353 0010810 116.7188 243.5099 14.26066591451514
SL-16 R/B               
1 25407U 98045B   26156.29902897  .00000187  00000+0  11869-3 0  9993
2 25407  71.0121 357.3319 0009546 255.6711 104.3353 14.16203822439503
ISS (ZARYA)             
1 25544U 98067A   26156.77317084  .00009220  00000+0  17151-3 0  9997
2 25544  51.6332 356.5983 0007059 137.5864 222.5671 15.49621928569985
CZ-4B R/B               
1 25732U 99025C   26156.50918406  .00000053  00000+0  46288-4 0  9996
2 25732  98.6489 198.6411 0038262  92.3059  27.3211 14.18281470400617
OKEAN-O                 
1 25860U 99039A   26156.45211617  .00000656  00000+0  92554-4 0  9993
2 25860  97.9320 215.3842 0001880  81.1065 279.0360 14.80452522447371
SL-16 R/B               
1 25861U 99039B   26156.41730161  .00000548  00000+0  76091-4 0  9998
2 25861  97.9842 215.3132 0014178 337.8996  22.1603 14.81833180449857
DELTA 2 R/B             
1 25876U 99041E   26156.70907517  .00000687  00000+0  14823-3 0  9998
2 25876  51.7659 309.6462 0501036 248.0872 106.6086 14.11994346375463
HELIOS 1B               
1 25977U 99064A   26156.47789322  .00001628  00000+0  18385-3 0  9994
2 25977  98.1623  61.2785 0002289 107.8860 252.2605 14.87974546698315
TERRA                   
1 25994U 99068A   26156.78687603  .00000422  00000+0  94866-4 0  9990
2 25994  97.9461 206.7846 0000845 250.8872 172.8578 14.61093912407947
SL-16 R/B               
1 26070U 00006B   26156.61977443 -.00000106  00000+0 -29822-4 0  9997
2 26070  71.0034 272.9467 0014967  41.5061 318.7196 14.15837272361008
TITAN 4B R/B            
1 26474U 00047B   26156.80089286  .00003610  00000+0  22387-3 0  9999
2 26474  67.9871 152.6216 0045446 298.5740  61.0839 15.10129951406218
ENVISAT                 
1 27386U 02009A   26156.65925344  .00000103  00000+0  47268-4 0  9999
2 27386  98.3829 108.2352 0001350  91.9876  80.9361 14.39061995271821
IDEFIX & ARIANE 42P R/B 
1 27422U 02021B   26156.59322257  .00000247  00000+0  11022-3 0  9998
2 27422  98.5941  94.2022 0010670 291.7791  68.2256 14.31076536256596
AQUA                    
1 27424U 02022A   26156.83058220  .00000885  00000+0  18577-3 0  9994
2 27424  98.4271 125.8871 0001548  55.8346   2.2008 14.62140448281617
CZ-4B R/B               
1 27432U 02024C   26156.07555442  .00000052  00000+0  49124-4 0  9998
2 27432  98.8704 208.9736 0050952 133.9745 293.4448 14.14562369241590
MIDORI II (ADEOS-II)    
1 27597U 02056A   26156.58777887  .00000300  00000+0  13578-3 0  9999
2 27597  98.7873 115.7496 0002224  93.7779 266.3657 14.29343082222859
H-2A R/B                
1 27601U 02056E   26156.65881993  .00000226  00000+0  94026-4 0  9992
2 27601  98.3307 113.7537 0068830 259.4331 274.1408 14.33816935226714
CZ-4B R/B               
1 28059U 03049C   26156.47262632  .00000361  00000+0  94451-4 0  9998
2 28059  98.6895 154.8528 0047418 325.0742  34.7345 14.55092077199365
CZ-2C R/B               
1 28222U 04012C   26155.72957243  .00094695  00000+0  59019-3 0  9990
2 28222  97.7083 229.9670 0008803 340.1675  19.9247 15.76591401217935
SL-16 R/B               
1 28353U 04021B   26156.06954731 -.00000125  00000+0 -40409-4 0  9993
2 28353  71.0024  49.1200 0007472 268.4538  91.5729 14.14613082135191
CZ-4B R/B               
1 28415U 04035C   26156.42988819  .00008537  00000+0  28820-3 0  9996
2 28415  97.3366 189.6370 0031426  20.0933 340.1537 15.30444803193326
CZ-2C R/B               
1 28480U 04046B   26156.34177095  .00000094  00000+0  50693-4 0  9991
2 28480  98.1953  65.8617 0138100 255.5493 103.0331 14.27023850121005
ARIANE 5 R/B            
1 28499U 04049H   26156.47689029  .00000888  00000+0  10357-3 0  9996
2 28499  98.2714 328.2782 0085102  66.9677 294.0483 14.85431987158828
